{
    "links": {
        "self": "http://www.neowsapp.com/rest/v1/neo/3838784?api_key=iIulBulltgU6a56xZRHN4H3l9WmuAYTsLGpBGhQ2"
    },
    "id": "3838784",
    "neo_reference_id": "3838784",
    "name": "(2019 CV5)",
    "designation": "2019 CV5",
    "nasa_jpl_url": "http://ssd.jpl.nasa.gov/sbdb.cgi?sstr=3838784",
    "absolute_magnitude_h": 22.9,
    "estimated_diameter": {
        "kilometers": {
            "estimated_diameter_min": 0.0699125232,
            "estimated_diameter_max": 0.1563291544
        },
        "meters": {
            "estimated_diameter_min": 69.9125232246,
            "estimated_diameter_max": 156.3291544087
        },
        "miles": {
            "estimated_diameter_min": 0.0434416145,
            "estimated_diameter_max": 0.097138403
        },
        "feet": {
            "estimated_diameter_min": 229.3718026961,
            "estimated_diameter_max": 512.8909429502
        }
    },
    "is_potentially_hazardous_asteroid": false,
    "close_approach_data": [
        {
            "close_approach_date": "2019-02-09",
            "close_approach_date_full": "2019-Feb-09 17:26",
            "epoch_date_close_approach": 1549733160000,
            "relative_velocity": {
                "kilometers_per_second": "2.9520045016",
                "kilometers_per_hour": "10627.2162056288",
                "miles_per_hour": "6603.3388695475"
            },
            "miss_distance": {
                "astronomical": "0.3156322013",
                "lunar": "122.7809263057",
                "kilometers": "47217905.017891231",
                "miles": "29339845.6713957478"
            },
            "orbiting_body": "Earth"
        }
    ],
    "orbital_data": {
        "orbit_id": "3",
        "orbit_determination_date": "2019-03-01 07:02:23",
        "first_observation_date": "2019-02-11",
        "last_observation_date": "2019-02-28",
        "data_arc_in_days": 17,
        "observations_used": 28,
        "orbit_uncertainty": "9",
        "minimum_orbit_intersection": ".31238",
        "jupiter_tisserand_invariant": "3.217",
        "epoch_osculation": "2458528.5",
        "eccentricity": ".5020965488625353",
        "semi_major_axis": "2.606553020337238",
        "inclination": "4.372003323095588",
        "ascending_node_longitude": "150.8576426606554",
        "orbital_period": "1537.0863716916",
        "perihelion_distance": "1.297811744398693",
        "perihelion_argument": "345.2412424963819",
        "aphelion_distance": "3.915294296275783",
        "perihelion_time": "2458516.884267268211",
        "mean_anomaly": "2.720513212827475",
        "mean_motion": ".2342093499949593",
        "equinox": "J2000",
        "orbit_class": {
            "orbit_class_type": "AMO",
            "orbit_class_description": "Near-Earth asteroid orbits similar to that of 1221 Amor",
            "orbit_class_range": "1.017 AU < q (perihelion) < 1.3 AU"
        }
    },
    "is_sentry_object": false
}